[{"OBJECT_NAME":"STARLINK-35842","OBJECT_ID":"2025-298N","EPOCH":"2026-03-09T22:34:19.800480","MEAN_MOTION":14.9914279,"ECCENTRICITY":0.00027944,"INCLINATION":70.0011,"RA_OF_ASC_NODE":13.888,"ARG_OF_PERICENTER":263.2033,"MEAN_ANOMALY":96.8809,"EPHEMERIS_TYPE":0,"CLASSIFICATION_TYPE":"U","NORAD_CAT_ID":67087,"ELEMENT_SET_NO":999,"REV_AT_EPOCH":1325,"BSTAR":0.00085303821,"MEAN_MOTION_DOT":0.00010316,"MEAN_MOTION_DDOT":0},{"OBJECT_NAME":"COSMOS 886 DEB","OBJECT_ID":"1976-126BG","EPOCH":"2026-03-09T13:54:31.812768","MEAN_MOTION":13.63649783,"ECCENTRICITY":0.0613654,"INCLINATION":65.7771,"RA_OF_ASC_NODE":152.6562,"ARG_OF_PERICENTER":40.4996,"MEAN_ANOMALY":324.0089,"EPHEMERIS_TYPE":0,"CLASSIFICATION_TYPE":"U","NORAD_CAT_ID":9966,"ELEMENT_SET_NO":999,"REV_AT_EPOCH":35769,"BSTAR":0.00099474,"MEAN_MOTION_DOT":2.808e-5,"MEAN_MOTION_DDOT":0}]
